{
  "type": "FeatureCollection",
  "features": [
    {
      "type": "Feature",
      "properties": {
        "norad_id": 66566,
        "name": "STARLINK-35871",
        "group": "last-30-days",
        "lat": 42.199627497177936,
        "lon": -102.89514810516067,
        "alt_km": 335.1632955175155,
        "timestamp": "2025-12-02T17:49:10.800636+00:00",
        "meta_object_name": "STARLINK-35871",
        "meta_object_id": "2025-268K",
        "meta_epoch": "2025-12-02T12:00:05.998752",
        "meta_mean_motion": 15.77199199,
        "meta_eccentricity": 0.0001721,
        "meta_inclination": 42.9976,
        "meta_ra_of_asc_node": 181.8883,
        "meta_arg_of_pericenter": 268.6329,
        "meta_mean_anomaly": 233.7844,
        "meta_ephemeris_type": 0,
        "meta_classification_type": "U",
        "meta_norad_cat_id": 66566,
        "meta_element_set_no": 999,
        "meta_rev_at_epoch": 302,
        "meta_bstar": -0.0094961,
        "meta_mean_motion_dot": -0.014226,
        "meta_mean_motion_ddot": 0,
        "tle_line1": "1 66566U 25268K   25336.50006943 -.01422600  00000+0 -94961-2 0  9995",
        "tle_line2": "2 66566  42.9976 181.8883 0001721 268.6329 233.7844 15.77199199  3026"
      },
      "geometry": {
        "type": "Point",
        "coordinates": [
          -102.89514810516067,
          42.199627497177936
        ]
      }
    },
    {
      "type": "Feature",
      "properties": {
        "norad_id": 66567,
        "name": "STARLINK-35825",
        "group": "last-30-days",
        "lat": 42.48185189457995,
        "lon": -100.22507493164743,
        "alt_km": 335.20501039606734,
        "timestamp": "2025-12-02T17:49:10.800646+00:00",
        "meta_object_name": "STARLINK-35825",
        "meta_object_id": "2025-268L",
        "meta_epoch": "2025-12-02T12:00:05.998752",
        "meta_mean_motion": 15.77140396,
        "meta_eccentricity": 0.0001665,
        "meta_inclination": 42.9974,
        "meta_ra_of_asc_node": 181.8832,
        "meta_arg_of_pericenter": 271.0314,
        "meta_mean_anomaly": 233.4257,
        "meta_ephemeris_type": 0,
        "meta_classification_type": "U",
        "meta_norad_cat_id": 66567,
        "meta_element_set_no": 999,
        "meta_rev_at_epoch": 302,
        "meta_bstar": -0.0093486,
        "meta_mean_motion_dot": -0.01399656,
        "meta_mean_motion_ddot": 0,
        "tle_line1": "1 66567U 25268L   25336.50006943 -.01399656  00000+0 -93486-2 0  9991",
        "tle_line2": "2 66567  42.9974 181.8832 0001665 271.0314 233.4257 15.77140396  3028"
      },
      "geometry": {
        "type": "Point",
        "coordinates": [
          -100.22507493164743,
          42.48185189457995
        ]
      }
    },
    {
      "type": "Feature",
      "properties": {
        "norad_id": 66568,
        "name": "STARLINK-35803",
        "group": "last-30-days",
        "lat": 42.703373593152236,
        "lon": -97.50297101559802,
        "alt_km": 335.3166284810841,
        "timestamp": "2025-12-02T17:49:10.800656+00:00",
        "meta_object_name": "STARLINK-35803",
        "meta_object_id": "2025-268M",
        "meta_epoch": "2025-12-02T12:00:05.998752",
        "meta_mean_motion": 15.77074588,
        "meta_eccentricity": 0.0001536,
        "meta_inclination": 42.9971,
        "meta_ra_of_asc_node": 181.8779,
        "meta_arg_of_pericenter": 276.3634,
        "meta_mean_anomaly": 230.176,
        "meta_ephemeris_type": 0,
        "meta_classification_type": "U",
        "meta_norad_cat_id": 66568,
        "meta_element_set_no": 999,
        "meta_rev_at_epoch": 302,
        "meta_bstar": -0.0096263,
        "meta_mean_motion_dot": -0.01432596,
        "meta_mean_motion_ddot": 0,
        "tle_line1": "1 66568U 25268M   25336.50006943 -.01432596  00000+0 -96263-2 0  9999",
        "tle_line2": "2 66568  42.9971 181.8779 0001536 276.3634 230.1760 15.77074588  3028"
      },
      "geometry": {
        "type": "Point",
        "coordinates": [
          -97.50297101559802,
          42.703373593152236
        ]
      }
    },
    {
      "type": "Feature",
      "properties": {
        "norad_id": 66569,
        "name": "STARLINK-35835",
        "group": "last-30-days",
        "lat": 42.85636246144972,
        "lon": -94.85031897415291,
        "alt_km": 335.5027994329794,
        "timestamp": "2025-12-02T17:49:10.800666+00:00",
        "meta_object_name": "STARLINK-35835",
        "meta_object_id": "2025-268N",
        "meta_epoch": "2025-12-02T12:00:05.998752",
        "meta_mean_motion": 15.77083351,
        "meta_eccentricity": 0.0001709,
        "meta_inclination": 42.9973,
        "meta_ra_of_asc_node": 181.8728,
        "meta_arg_of_pericenter": 271.3874,
        "meta_mean_anomaly": 237.1131,
        "meta_ephemeris_type": 0,
        "meta_classification_type": "U",
        "meta_norad_cat_id": 66569,
        "meta_element_set_no": 999,
        "meta_rev_at_epoch": 302,
        "meta_bstar": -0.0099878,
        "meta_mean_motion_dot": -0.0148062,
        "meta_mean_motion_ddot": 0,
        "tle_line1": "1 66569U 25268N   25336.50006943 -.01480620  00000+0 -99878-2 0  9996",
        "tle_line2": "2 66569  42.9973 181.8728 0001709 271.3874 237.1131 15.77083351  3025"
      },
      "geometry": {
        "type": "Point",
        "coordinates": [
          -94.85031897415291,
          42.85636246144972
        ]
      }
    },
    {
      "type": "Feature",
      "properties": {
        "norad_id": 66570,
        "name": "STARLINK-35834",
        "group": "last-30-days",
        "lat": 42.949036120586356,
        "lon": -92.11384083449659,
        "alt_km": 335.5615442741537,
        "timestamp": "2025-12-02T17:49:10.800677+00:00",
        "meta_object_name": "STARLINK-35834",
        "meta_object_id": "2025-268P",
        "meta_epoch": "2025-12-02T12:00:05.998752",
        "meta_mean_motion": 15.77033772,
        "meta_eccentricity": 0.0001528,
        "meta_inclination": 42.9973,
        "meta_ra_of_asc_node": 181.868,
        "meta_arg_of_pericenter": 272.0834,
        "meta_mean_anomaly": 238.4756,
        "meta_ephemeris_type": 0,
        "meta_classification_type": "U",
        "meta_norad_cat_id": 66570,
        "meta_element_set_no": 999,
        "meta_rev_at_epoch": 302,
        "meta_bstar": -0.010221,
        "meta_mean_motion_dot": -0.01507833,
        "meta_mean_motion_ddot": 0,
        "tle_line1": "1 66570U 25268P   25336.50006943 -.01507833  00000+0 -10221-1 0  9998",
        "tle_line2": "2 66570  42.9973 181.8680 0001528 272.0834 238.4756 15.77033772  3026"
      },
      "geometry": {
        "type": "Point",
        "coordinates": [
          -92.11384083449659,
          42.949036120586356
        ]
      }
    },
    {
      "type": "Feature",
      "properties": {
        "norad_id": 66571,
        "name": "STARLINK-35836",
        "group": "last-30-days",
        "lat": 42.97667385249966,
        "lon": -89.38055279725137,
        "alt_km": 335.7778891614471,
        "timestamp": "2025-12-02T17:49:10.800689+00:00",
        "meta_object_name": "STARLINK-35836",
        "meta_object_id": "2025-268Q",
        "meta_epoch": "2025-12-02T12:00:05.998752",
        "meta_mean_motion": 15.76992867,
        "meta_eccentricity": 0.0001513,
        "meta_inclination": 42.9978,
        "meta_ra_of_asc_node": 181.8629,
        "meta_arg_of_pericenter": 273.3855,
        "meta_mean_anomaly": 239.2267,
        "meta_ephemeris_type": 0,
        "meta_classification_type": "U",
        "meta_norad_cat_id": 66571,
        "meta_element_set_no": 999,
        "meta_rev_at_epoch": 302,
        "meta_bstar": -0.010704,
        "meta_mean_motion_dot": -0.01567528,
        "meta_mean_motion_ddot": 0,
        "tle_line1": "1 66571U 25268Q   25336.50006943 -.01567528  00000+0 -10704-1 0  9992",
        "tle_line2": "2 66571  42.9978 181.8629 0001513 273.3855 239.2267 15.76992867  3020"
      },
      "geometry": {
        "type": "Point",
        "coordinates": [
          -89.38055279725137,
          42.97667385249966
        ]
      }
    },
    {
      "type": "Feature",
      "properties": {
        "norad_id": 66572,
        "name": "STARLINK-35870",
        "group": "last-30-days",
        "lat": 42.937718187760666,
        "lon": -86.61587174271395,
        "alt_km": 335.96945801216316,
        "timestamp": "2025-12-02T17:49:10.800700+00:00",
        "meta_object_name": "STARLINK-35870",
        "meta_object_id": "2025-268R",
        "meta_epoch": "2025-12-02T12:00:05.998752",
        "meta_mean_motion": 15.7696256,
        "meta_eccentricity": 0.0001679,
        "meta_inclination": 42.9978,
        "meta_ra_of_asc_node": 181.8585,
        "meta_arg_of_pericenter": 265.2789,
        "meta_mean_anomaly": 249.3857,
        "meta_ephemeris_type": 0,
        "meta_classification_type": "U",
        "meta_norad_cat_id": 66572,
        "meta_element_set_no": 999,
        "meta_rev_at_epoch": 302,
        "meta_bstar": -0.010661,
        "meta_mean_motion_dot": -0.01560258,
        "meta_mean_motion_ddot": 0,
        "tle_line1": "1 66572U 25268R   25336.50006943 -.01560258  00000+0 -10661-1 0  9998",
        "tle_line2": "2 66572  42.9978 181.8585 0001679 265.2789 249.3857 15.76962560  3025"
      },
      "geometry": {
        "type": "Point",
        "coordinates": [
          -86.61587174271395,
          42.937718187760666
        ]
      }
    }
  ]
}